start=new Date('2022-02-08T00:00:00.000Z').valueOf();
sats=[{"ARG_OF_PERICENTER":"84.2387","MEAN_MOTION":"15.06399570","PERIOD":"95.592","OBJECT_NAME":"STARLINK-2699","APOAPSIS":"548.162","SITE":"AFETR","TLE_LINE2":"2 48433  53.0555   5.4475 0001368  84.2387  49.8632 15.06399570  3596","MEAN_ELEMENT_THEORY":"SGP4","NORAD_CAT_ID":"48433","FILE":"3294379","EPOCH":"2022-02-07T14:00:01.000224","MEAN_MOTION_DOT":"-0.00022291","ELEMENT_SET_NO":"999","GP_ID":"195480834","ECCENTRICITY":"0.00013680","MEAN_MOTION_DDOT":"0.0000000000000","DECAY_DATE":null,"INCLINATION":"53.0555","OBJECT_TYPE":"PAYLOAD","RA_OF_ASC_NODE":"5.4475","PERIAPSIS":"546.267","EPHEMERIS_TYPE":"0","RCS_SIZE":"LARGE","TIME_SYSTEM":"UTC","REF_FRAME":"TEME","MEAN_ANOMALY":"49.8632","TLE_LINE1":"1 48433U 21040F   22038.58334491 -.00022291  00000-0 -14823-2 0  9999","COUNTRY_CODE":"US","BSTAR":"-0.00148230000000","OBJECT_ID":"2021-040F","LAUNCH_DATE":"2021-05-09","CENTER_NAME":"EARTH","CLASSIFICATION_TYPE":"U","REV_AT_EPOCH":"359","SEMIMAJOR_AXIS":"6925.350"},{"MEAN_ELEMENT_THEORY":"SGP4","OBJECT_NAME":"STARLINK-2692","TLE_LINE2":"2 48434  53.0564  10.4621 0001467  85.6327   0.9485 15.06387223  3591","SITE":"AFETR","APOAPSIS":"548.269","ARG_OF_PERICENTER":"85.6327","PERIOD":"95.593","MEAN_MOTION":"15.06387223","OBJECT_TYPE":"PAYLOAD","MEAN_MOTION_DDOT":"0.0000000000000","DECAY_DATE":null,"INCLINATION":"53.0564","ECCENTRICITY":"0.00014670","ELEMENT_SET_NO":"999","GP_ID":"195481085","NORAD_CAT_ID":"48434","MEAN_MOTION_DOT":"-0.00024002","FILE":"3294379","EPOCH":"2022-02-07T14:00:01.000224","TIME_SYSTEM":"UTC","REF_FRAME":"TEME","EPHEMERIS_TYPE":"0","PERIAPSIS":"546.237","RCS_SIZE":"LARGE","RA_OF_ASC_NODE":"10.4621","REV_AT_EPOCH":"359","CENTER_NAME":"EARTH","LAUNCH_DATE":"2021-05-09","CLASSIFICATION_TYPE":"U","SEMIMAJOR_AXIS":"6925.388","MEAN_ANOMALY":"0.9485","OBJECT_ID":"2021-040G","COUNTRY_CODE":"US","BSTAR":"-0.00159840000000","TLE_LINE1":"1 48434U 21040G   22038.58334491 -.00024002  00000-0 -15984-2 0  9991"},{"APOAPSIS":"553.411","TLE_LINE2":"2 48435  53.0565  20.8636 0001685  51.1717 308.9422 15.04760307 42060","SITE":"AFETR","OBJECT_NAME":"STARLINK-2633","MEAN_ELEMENT_THEORY":"SGP4","MEAN_MOTION":"15.04760307","PERIOD":"95.696","ARG_OF_PERICENTER":"51.1717","INCLINATION":"53.0565","DECAY_DATE":null,"MEAN_MOTION_DDOT":"0.0000000000000","OBJECT_TYPE":"PAYLOAD","FILE":"3294379","EPOCH":"2022-02-07T08:57:18.179712","MEAN_MOTION_DOT":"-0.00001523","NORAD_CAT_ID":"48435","ELEMENT_SET_NO":"999","GP_ID":"195480332","ECCENTRICITY":"0.00016850","RCS_SIZE":"LARGE","PERIAPSIS":"551.076","EPHEMERIS_TYPE":"0","REF_FRAME":"TEME","TIME_SYSTEM":"UTC","RA_OF_ASC_NODE":"20.8636","SEMIMAJOR_AXIS":"6930.379","LAUNCH_DATE":"2021-05-09","CENTER_NAME":"EARTH","CLASSIFICATION_TYPE":"U","REV_AT_EPOCH":"4206","TLE_LINE1":"1 48435U 21040H   22038.37312708 -.00001523  00000-0 -87437-4 0  9993","COUNTRY_CODE":"US","OBJECT_ID":"2021-040H","BSTAR":"-0.00008743700000","MEAN_ANOMALY":"308.9422"},{"MEAN_ANOMALY":"301.3369","OBJECT_ID":"2021-040J","COUNTRY_CODE":"US","BSTAR":"-0.00007521700000","TLE_LINE1":"1 48436U 21040J   22038.28038005 -.00001401  00000-0 -75217-4 0  9997","REV_AT_EPOCH":"4183","LAUNCH_DATE":"2021-05-09","CENTER_NAME":"EARTH","CLASSIFICATION_TYPE":"U","SEMIMAJOR_AXIS":"6925.407","RA_OF_ASC_NODE":"36.8079","TIME_SYSTEM":"UTC","REF_FRAME":"TEME","EPHEMERIS_TYPE":"0","PERIAPSIS":"546.120","RCS_SIZE":"LARGE","ECCENTRICITY":"0.00016630","ELEMENT_SET_NO":"999","GP_ID":"195480083","NORAD_CAT_ID":"48436","MEAN_MOTION_DOT":"-0.00001401","EPOCH":"2022-02-07T06:43:44.836320","FILE":"3294379","OBJECT_TYPE":"PAYLOAD","MEAN_MOTION_DDOT":"0.0000000000000","DECAY_DATE":null,"INCLINATION":"53.0556","ARG_OF_PERICENTER":"58.7783","PERIOD":"95.593","MEAN_MOTION":"15.06380882","MEAN_ELEMENT_THEORY":"SGP4","OBJECT_NAME":"STARLINK-2639","TLE_LINE2":"2 48436  53.0556  36.8079 0001663  58.7783 301.3369 15.06380882 41830","SITE":"AFETR","APOAPSIS":"548.424"},{"MEAN_MOTION_DDOT":"0.0000000000000","DECAY_DATE":null,"INCLINATION":"53.0464","OBJECT_TYPE":"PAYLOAD","NORAD_CAT_ID":"48437","MEAN_MOTION_DOT":"-0.00001549","FILE":"3294379","EPOCH":"2022-02-07T09:32:16.683648","ECCENTRICITY":"0.00017890","ELEMENT_SET_NO":"999","GP_ID":"195481334","OBJECT_NAME":"STARLINK-2642","SITE":"AFETR","TLE_LINE2":"2 48437  53.0464  46.3171 0001789  56.0775 304.0384 15.06378054 41711","APOAPSIS":"548.520","MEAN_ELEMENT_THEORY":"SGP4","ARG_OF_PERICENTER":"56.0775","PERIOD":"95.594","MEAN_MOTION":"15.06378054","REV_AT_EPOCH":"4171","CLASSIFICATION_TYPE":"U","LAUNCH_DATE":"2021-05-09","CENTER_NAME":"EARTH","SEMIMAJOR_AXIS":"6925.416","MEAN_ANOMALY":"304.0384","COUNTRY_CODE":"US","BSTAR":"-0.00008518500000","OBJECT_ID":"2021-040K","TLE_LINE1":"1 48437U 21040K   22038.39741532 -.00001549  00000-0 -85185-4 0  9994","EPHEMERIS_TYPE":"0","PERIAPSIS":"546.042","RCS_SIZE":"LARGE","TIME_SYSTEM":"UTC","REF_FRAME":"TEME","RA_OF_ASC_NODE":"46.3171"},{"SEMIMAJOR_AXIS":"6925.408","REV_AT_EPOCH":"4186","LAUNCH_DATE":"2021-05-09","CLASSIFICATION_TYPE":"U","CENTER_NAME":"EARTH","COUNTRY_CODE":"US","BSTAR":"-0.00003763900000","OBJECT_ID":"2021-040L","TLE_LINE1":"1 48438U 21040L   22038.47574426 -.00000842  00000-0 -37639-4 0  9996","MEAN_ANOMALY":"313.7002","RCS_SIZE":"LARGE","EPHEMERIS_TYPE":"0","PERIAPSIS":"545.803","REF_FRAME":"TEME","TIME_SYSTEM":"UTC","RA_OF_ASC_NODE":"35.9466","INCLINATION":"53.0558","MEAN_MOTION_DDOT":"0.0000000000000","DECAY_DATE":null,"OBJECT_TYPE":"PAYLOAD","MEAN_MOTION_DOT":"-0.00000842","EPOCH":"2022-02-07T11:25:04.304064","FILE":"3294379","NORAD_CAT_ID":"48438","ECCENTRICITY":"0.00021230","ELEMENT_SET_NO":"999","GP_ID":"195481585","SITE":"AFETR","TLE_LINE2":"2 48438  53.0558  35.9466 0002123  46.4163 313.7002 15.06380677 41868","APOAPSIS":"548.743","OBJECT_NAME":"STARLINK-2640","MEAN_ELEMENT_THEORY":"SGP4","PERIOD":"95.593","MEAN_MOTION":"15.06380677","ARG_OF_PERICENTER":"46.4163"},{"EPOCH":"2022-02-07T09:44:12.962112","FILE":"3294379","MEAN_MOTION_DOT":"-0.00002137","NORAD_CAT_ID":"48439","ELEMENT_SET_NO":"999","GP_ID":"195479833","ECCENTRICITY":"0.00016570","INCLINATION":"53.0558","DECAY_DATE":null,"MEAN_MOTION_DDOT":"0.0000000000000","OBJECT_TYPE":"PAYLOAD","MEAN_MOTION":"15.06388427","PERIOD":"95.593","ARG_OF_PERICENTER":"58.3101","APOAPSIS":"548.397","SITE":"AFETR","TLE_LINE2":"2 48439  53.0558  36.2609 0001657  58.3101 301.8050 15.06388427 41858","OBJECT_NAME":"STARLINK-2583","MEAN_ELEMENT_THEORY":"SGP4","TLE_LINE1":"1 48439U 21040M   22038.40570558 -.00002137  00000-0 -12464-3 0  9999","COUNTRY_CODE":"US","BSTAR":"-0.00012464000000","OBJECT_ID":"2021-040M","MEAN_ANOMALY":"301.8050","SEMIMAJOR_AXIS":"6925.384","LAUNCH_DATE":"2021-05-09","CENTER_NAME":"EARTH","CLASSIFICATION_TYPE":"U","REV_AT_EPOCH":"4185","RA_OF_ASC_NODE":"36.2609","RCS_SIZE":"LARGE","PERIAPSIS":"546.101","EPHEMERIS_TYPE":"0","REF_FRAME":"TEME","TIME_SYSTEM":"UTC"},{"MEAN_ANOMALY":"304.4296","COUNTRY_CODE":"US","BSTAR":"-0.00007672100000","OBJECT_ID":"2021-040N","TLE_LINE1":"1 48440U 21040N   22038.40202631 -.00001424  00000-0 -76721-4 0  9990","REV_AT_EPOCH":"4185","LAUNCH_DATE":"2021-05-09","CLASSIFICATION_TYPE":"U","CENTER_NAME":"EARTH","SEMIMAJOR_AXIS":"6925.403","RA_OF_ASC_NODE":"36.2764","TIME_SYSTEM":"UTC","REF_FRAME":"TEME","EPHEMERIS_TYPE":"0","PERIAPSIS":"546.051","RCS_SIZE":"LARGE","ECCENTRICITY":"0.00017580","ELEMENT_SET_NO":"999","GP_ID":"195480583","NORAD_CAT_ID":"48440","MEAN_MOTION_DOT":"-0.00001424","FILE":"3294379","EPOCH":"2022-02-07T09:38:55.073184","OBJECT_TYPE":"PAYLOAD","MEAN_MOTION_DDOT":"0.0000000000000","DECAY_DATE":null,"INCLINATION":"53.0579","ARG_OF_PERICENTER":"55.6859","PERIOD":"95.593","MEAN_MOTION":"15.06382075","MEAN_ELEMENT_THEORY":"SGP4","OBJECT_NAME":"STARLINK-2682","SITE":"AFETR","TLE_LINE2":"2 48440  53.0579  36.2764 0001758  55.6859 304.4296 15.06382075 41851","APOAPSIS":"548.486"},{"RA_OF_ASC_NODE":"36.2873","TIME_SYSTEM":"UTC","REF_FRAME":"TEME","PERIAPSIS":"546.029","EPHEMERIS_TYPE":"0","RCS_SIZE":"LARGE","MEAN_ANOMALY":"305.4630","TLE_LINE1":"1 48441U 21040P   22038.39833392 -.00000940  00000-0 -44244-4 0  9990","COUNTRY_CODE":"US","BSTAR":"-0.00004424400000","OBJECT_ID":"2021-040P","LAUNCH_DATE":"2021-05-09","CENTER_NAME":"EARTH","CLASSIFICATION_TYPE":"U","REV_AT_EPOCH":"4185","SEMIMAJOR_AXIS":"6925.414","ARG_OF_PERICENTER":"54.6527","MEAN_MOTION":"15.06378737","PERIOD":"95.593","MEAN_ELEMENT_THEORY":"SGP4","OBJECT_NAME":"STARLINK-2702","APOAPSIS":"548.528","SITE":"AFETR","TLE_LINE2":"2 48441  53.0570  36.2873 0001804  54.6527 305.4630 15.06378737 41850","ELEMENT_SET_NO":"999","GP_ID":"195480835","ECCENTRICITY":"0.00018040","NORAD_CAT_ID":"48441","EPOCH":"2022-02-07T09:33:36.050688","FILE":"3294379","MEAN_MOTION_DOT":"-0.00000940","OBJECT_TYPE":"PAYLOAD","DECAY_DATE":null,"MEAN_MOTION_DDOT":"0.0000000000000","INCLINATION":"53.0570"},{"RA_OF_ASC_NODE":"35.9915","TIME_SYSTEM":"UTC","REF_FRAME":"TEME","PERIAPSIS":"546.312","EPHEMERIS_TYPE":"0","RCS_SIZE":"LARGE","MEAN_ANOMALY":"289.0405","TLE_LINE1":"1 48442U 21040Q   22038.46099788 -.00001467  00000-0 -79672-4 0  9990","COUNTRY_CODE":"US","BSTAR":"-0.00007967200000","OBJECT_ID":"2021-040Q","LAUNCH_DATE":"2021-05-09","CLASSIFICATION_TYPE":"U","CENTER_NAME":"EARTH","REV_AT_EPOCH":"4186","SEMIMAJOR_AXIS":"6925.410","ARG_OF_PERICENTER":"71.0735","MEAN_MOTION":"15.06380016","PERIOD":"95.593","MEAN_ELEMENT_THEORY":"SGP4","OBJECT_NAME":"STARLINK-2644","APOAPSIS":"548.237","TLE_LINE2":"2 48442  53.0560  35.9915 0001390  71.0735 289.0405 15.06380016 41868","SITE":"AFETR","ELEMENT_SET_NO":"999","GP_ID":"195481086","ECCENTRICITY":"0.00013900","NORAD_CAT_ID":"48442","EPOCH":"2022-02-07T11:03:50.216832","FILE":"3294379","MEAN_MOTION_DOT":"-0.00001467","OBJECT_TYPE":"PAYLOAD","DECAY_DATE":null,"MEAN_MOTION_DDOT":"0.0000000000000","INCLINATION":"53.0560"}];
